ONEWEB-0456             
1 51646U 22012AA  25294.80250824  .00000448  00000+0  12481-2 0  9993
2 51646  87.8769  83.7486 0001637 101.2440 258.8872 13.10369739178125
ONEWEB-0457             
1 51647U 22012AB  25294.77927414  .00000246  00000+0  66887-3 0  9992
2 51647  87.8763  83.8061 0001664  79.3792 280.7522 13.10374526178121
ONEWEB-0458             
1 51648U 22012AC  25294.80085296  .00000509  00000+0  14226-2 0  9991
2 51648  87.8759  83.7729 0001404  94.2234 265.9054 13.10370473178083
ONEWEB-0461             
1 51649U 22012AD  25294.78952889  .00000040  00000+0  71086-4 0  9999
2 51649  87.9118  53.2484 0001793  96.3231 263.8104 13.17648943182495
ONEWEB-0463             
1 51650U 22012AE  25294.77096670  .00000042  00000+0  74891-4 0  9996
2 51650  87.9099  53.3054 0001627  98.9355 261.1960 13.17649102182275
ONEWEB-0464             
1 51651U 22012AF  25294.79753595  .00000599  00000+0  16787-2 0  9990
2 51651  87.8757  83.8125 0001679 105.0420 255.0893 13.10370988178103
ONEWEB-0468             
1 51652U 22012AG  25294.80417742  .00000353  00000+0  97442-3 0  9990
2 51652  87.8759  83.8036 0001478 102.7134 257.4159 13.10372895178087
ONEWEB-0473             
1 51653U 22012AH  25294.78923843  .00000642  00000+0  18026-2 0  9993
2 51653  87.8760  83.8100 0001471  96.2022 263.9273 13.10373509178080
ONEWEB-0474             
1 51654U 22012AJ  25294.78093451  .00000411  00000+0  11403-2 0  9993
2 51654  87.8770  83.7745 0001521 104.4927 255.6369 13.10374315178077
ONEWEB-0475             
1 51655U 22012AK  25294.78277663  .00000004  00000+0 -23018-4 0  9999
2 51655  87.9107  53.2883 0001232 124.9974 235.1273 13.17648941182298
ONEWEB-0490             
1 54113U 22138A   25294.69075206 -.00000029  00000+0 -10519-3 0  9998
2 54113  87.9262 352.4006 0001935 104.7590 255.3757 13.19727280145378
ONEWEB-0492             
1 54114U 22138B   25294.71605411  .00000051  00000+0  95334-4 0  9991
2 54114  87.9253 352.4152 0002035 103.1153 257.0207 13.19725474145384
ONEWEB-0495             
1 54115U 22138C   25294.69391084 -.00000109  00000+0 -30465-3 0  9996
2 54115  87.9252 352.4259 0002044 120.6694 239.4641 13.19727368145364
ONEWEB-0497             
1 54116U 22138D   25294.70656304  .00000030  00000+0  42116-4 0  9996
2 54116  87.9261 352.4051 0001893 101.7758 258.3587 13.19724387145353
ONEWEB-0499             
1 54117U 22138E   25294.68997963  .00000027  00000+0  36322-4 0  9991
2 54117  87.9255 352.4231 0001696 102.8179 257.3144 13.19723359145364
ONEWEB-0500             
1 54118U 22138F   25294.69235058 -.00000012  00000+0 -62284-4 0  9995
2 54118  87.9255 352.4099 0001951  98.0416 262.0938 13.19724335145371
ONEWEB-0501             
1 54119U 22138G   25294.72236936  .00000042  00000+0  72226-4 0  9994
2 54119  87.9262 352.3980 0001861 112.0291 248.1040 13.19724927145350
ONEWEB-0502             
1 54120U 22138H   25294.70814666 -.00000008  00000+0 -53012-4 0  9992
2 54120  87.9260 352.3832 0001729 107.1081 253.0241 13.19725005145379
ONEWEB-0503             
1 54121U 22138J   25294.69708458  .00000047  00000+0  84025-4 0  9991
2 54121  87.9260 352.3898 0001586  95.4308 264.7006 13.19724448145361
ONEWEB-0504             
1 54122U 22138K   25294.68445149 -.00000018  00000+0 -77364-4 0  9994
2 54122  87.9262 352.4097 0001680 106.5684 253.5633 13.19724347145373
ONEWEB-0505             
1 54123U 22138L   25294.68129336  .00000041  00000+0  69049-4 0  9997
2 54123  87.9262 352.3983 0001749 116.7777 243.3535 13.19724229145354
ONEWEB-0506             
1 54124U 22138M   25294.65602220  .00000042  00000+0  72163-4 0  9995
2 54124  87.9263 352.4002 0001831 104.2080 255.9256 13.19724518145349
ONEWEB-0507             
1 54125U 22138N   25294.67655226  .00000020  00000+0  18568-4 0  9997
2 54125  87.9246 352.4405 0001906 105.9541 254.1802 13.19724136145390
ONEWEB-0508             
1 54126U 22138P   25294.67339644  .00000045  00000+0  81240-4 0  9995
2 54126  87.9255 352.4297 0001964 110.7489 249.3854 13.19724559145379
ONEWEB-0509             
1 54127U 22138Q   25294.72393507  .00000070  00000+0  14131-3 0  9992
2 54127  87.9264 352.3856 0001859 103.2291 256.9049 13.19723867145350
ONEWEB-0510             
1 54128U 22138R   25294.57336036  .00000103  00000+0  22138-3 0  9993
2 54128  87.9201 322.0261 0002026  79.0329 281.1032 13.20770271147789
ONEWEB-0511             
1 54129U 22138S   25294.72078247  .00000037  00000+0  61008-4 0  9994
2 54129  87.9262 352.3904 0001554  97.3702 262.7607 13.19724871145380
ONEWEB-0512             
1 54130U 22138T   25294.71288176 -.00000023  00000+0 -90181-4 0  9990
2 54130  87.9243 352.4247 0001743 111.3814 248.7504 13.19724811145354
ONEWEB-0513             
1 54131U 22138U   25294.66594576  .00000034  00000+0  51211-4 0  9990
2 54131  87.9266 352.3948 0001368 112.3677 247.7601 13.20317518145247
ONEWEB-0514             
1 54132U 22138V   25294.72867567  .00000116  00000+0  25622-3 0  9998
2 54132  87.9256 352.4017 0001850  95.0578 265.0766 13.19724271145373
ONEWEB-0515             
1 54133U 22138W   25294.63649237  .00000032  00000+0  47345-4 0  9995
2 54133  87.9210 321.9956 0002695  85.0524 275.0917 13.20770789147812
ONEWEB-0516             
1 54134U 22138X   25294.70340354  .00000070  00000+0  14155-3 0  9996
2 54134  87.9244 352.4318 0001927 101.9254 258.2095 13.19724366145373
ONEWEB-0517             
1 54135U 22138Y   25294.68286369 -.00000002  00000+0 -36704-4 0  9991
2 54135  87.9263 352.4067 0001609  95.0704 265.0613 13.19723568145371
ONEWEB-0518             
1 54136U 22138Z   25294.70182307  .00000013  00000+0  38126-6 0  9994
2 54136  87.9245 352.4340 0001835 104.2489 255.8848 13.19724294145374
ONEWEB-0519             
1 54137U 22138AA  25294.72709345  .00000119  00000+0  26477-3 0  9994
2 54137  87.9263 352.3896 0001637  97.2427 262.8892 13.19723834145380
ONEWEB-0520             
1 54138U 22138AB  25294.68602839 -.00000008  00000+0 -53315-4 0  9991
2 54138  87.9263 352.4016 0001920 108.7356 251.3985 13.19724060145366
ONEWEB-0521             
1 54139U 22138AC  25294.71920392  .00000048  00000+0  87234-4 0  9992
2 54139  87.9260 352.3806 0001663  93.2879 266.8444 13.19724969145316
ONEWEB-0522             
1 54140U 22138AD  25294.69867442 -.00000002  00000+0 -38249-4 0  9991
2 54140  87.9262 352.3858 0001845 105.1340 254.9997 13.19725969145351
ONEWEB-0523             
1 54141U 22138AE  25294.77537117  .00000072  00000+0  14593-3 0  9994
2 54141  87.9201 321.9907 0002241  73.5526 286.5853 13.20769943147836
ONEWEB-0524             
1 54142U 22138AF  25294.61280699 -.00001266  00000+0 -31457-2 0  9993
2 54142  87.9203 322.0245 0002853  90.9639 269.1821 13.20776017147813
ONEWEB-0525             
1 54143U 22138AG  25294.71762193  .00000033  00000+0  49677-4 0  9993
2 54143  87.9262 352.4041 0001856 109.0148 251.1186 13.19724228145378
ONEWEB-0526             
1 54144U 22138AH  25294.67497528  .00000043  00000+0  74583-4 0  9991
2 54144  87.9262 352.3989 0001924 101.6949 258.4400 13.19724021145349
ONEWEB-0529             
1 54145U 22138AJ  25294.67813022  .00000014  00000+0  14779-5 0  9993
2 54145  87.9246 352.4335 0001935 106.5293 253.6052 13.19723856145363
ONEWEB-0531             
1 54146U 22138AK  25294.59861840  .00000003  00000+0 -24160-4 0  9999
2 54146  87.9203 322.0179 0002503  77.9424 282.1989 13.20770837147816
ONEWEB-0535             
1 54147U 22138AL  25294.71130596  .00000041  00000+0  69233-4 0  9992
2 54147  87.9256 352.3873 0001868  87.7641 272.3706 13.19725202145387
ONEWEB-0536             
1 54148U 22138AM  25294.58597914  .00000071  00000+0  14331-3 0  9990
2 54148  87.9200 322.0673 0002737  79.7859 280.3583 13.20769352147804
ONEWEB-0527             
1 54642U 22166A   25294.80276686  .00000046  00000+0  79735-4 0  9997
2 54642  87.9165 291.5629 0001949  91.2196 268.9161 13.21887892140045
ONEWEB-0528             
1 54643U 22166B   25294.80934522 -.00000027  00000+0 -97724-4 0  9997
2 54643  87.9169 291.5651 0001931  91.8723 268.2632 13.21861010140059
ONEWEB-0539             
1 54644U 22166C   25294.77140956  .00000644  00000+0  15288-2 0  9990
2 54644  87.9164 291.5392 0001602  91.3560 268.7758 13.21728117140049
ONEWEB-0540             
1 54645U 22166D   25294.77810042  .00000677  00000+0  16104-2 0  9995
2 54645  87.9165 291.5762 0001633  90.3430 269.7891 13.21700674140037
ONEWEB-0542             
1 54646U 22166E   25294.78125301  .00001811  00000+0  43602-2 0  9998
2 54646  87.9164 291.5350 0001505  84.2809 275.8497 13.21703678140048
ONEWEB-0545             
1 54647U 22166F   25294.44398920  .00000044  00000+0  75335-4 0  9998
2 54647  87.9167 291.6215 0001400  88.6453 271.4841 13.21812601139961
ONEWEB-0580             
1 54648U 22166G   25294.79612747  .00000044  00000+0  75316-4 0  9992
2 54648  87.9166 291.5498 0001586  81.5210 278.6103 13.21772254140052
ONEWEB-0582             
1 54649U 22166H   25294.76320620  .00000043  00000+0  73120-4 0  9996
2 54649  87.9165 291.5494 0001480  79.2085 280.9216 13.21752859140022
ONEWEB-0583             
1 54650U 22166J   25294.77468797  .00000401  00000+0  94167-3 0  9998
2 54650  87.9164 291.5728 0001743  89.7079 270.4255 13.21712777140037
ONEWEB-0584             
1 54651U 22166K   25294.79448181  .00000123  00000+0  26572-3 0  9992
2 54651  87.9166 291.5536 0001667  78.8502 281.2819 13.21775863140022
ONEWEB-0585             
1 54652U 22166L   25294.44072097  .00000069  00000+0  13569-3 0  9995
2 54652  87.9165 291.6096 0002012  90.3478 269.7886 13.21826590139982
ONEWEB-0586             
1 54653U 22166M   25294.52954265  .00000000  00000+0 -30574-4 0  9993
2 54653  87.9167 291.6175 0001709  88.6072 271.5258 13.21776701139998
ONEWEB-0587             
1 54654U 22166N   25294.76648248  .00000541  00000+0  12789-2 0  9996
2 54654  87.9177 291.5209 0002248  93.2152 266.9239 13.21743601140180
